[{"OBJECT_NAME":"ICEYE-X4","OBJECT_ID":"2019-038D","EPOCH":"2026-03-09T23:53:58.416000","MEAN_MOTION":15.26985132,"ECCENTRICITY":0.00122769,"INCLINATION":97.8888,"RA_OF_ASC_NODE":96.1923,"ARG_OF_PERICENTER":293.9914,"MEAN_ANOMALY":66.0038,"EPHEMERIS_TYPE":0,"CLASSIFICATION_TYPE":"U","NORAD_CAT_ID":44390,"ELEMENT_SET_NO":999,"REV_AT_EPOCH":36665,"BSTAR":0.00049915294,"MEAN_MOTION_DOT":0.00013179,"MEAN_MOTION_DDOT":0},{"OBJECT_NAME":"STARLINK-31051","OBJECT_ID":"2024-002Q","EPOCH":"2026-03-09T16:24:40.663872","MEAN_MOTION":15.30202741,"ECCENTRICITY":0.0001004,"INCLINATION":53.1603,"RA_OF_ASC_NODE":230.0143,"ARG_OF_PERICENTER":85.212,"MEAN_ANOMALY":274.8996,"EPHEMERIS_TYPE":0,"CLASSIFICATION_TYPE":"U","NORAD_CAT_ID":58719,"ELEMENT_SET_NO":999,"REV_AT_EPOCH":12201,"BSTAR":-4.5609465e-5,"MEAN_MOTION_DOT":-1.71e-5,"MEAN_MOTION_DDOT":0}]
